IRIDIUM 119             
1 42959U 17061E   25061.77058547  .00000018  00000+0 -54275-6 0  9999
2 42959  86.3969 222.1942 0002374  93.5364 266.6103 14.34217976387242
IRIDIUM 107             
1 42960U 17061F   25061.85938211  .00000555  00000+0  19102-3 0  9997
2 42960  86.3968 222.1753 0002455  83.8258 276.3218 14.34215343387271
IRIDIUM 132             
1 42961U 17061G   25061.44711103  .00000112  00000+0  32884-4 0  9994
2 42961  86.3970 222.3309 0002129  89.1481 270.9959 14.34218428387201
IRIDIUM 136             
1 42962U 17061H   25061.47882679  .00000532  00000+0  18287-3 0  9991
2 42962  86.3971 222.3219 0002471  90.8399 269.3080 14.34218554387229
IRIDIUM 139             
1 42963U 17061J   25061.48516716  .00000566  00000+0  19495-3 0  9998
2 42963  86.3973 222.3735 0002295  85.7886 274.3572 14.34220561387237
IRIDIUM 125             
1 42964U 17061K   25061.47248283  .00000681  00000+0  23592-3 0  9990
2 42964  86.3974 222.4312 0002677  96.0072 264.1429 14.34220499387246
IRIDIUM 135             
1 43070U 17083A   25061.23730317  .00000590  00000+0  20349-3 0  9997
2 43070  86.4039 159.2995 0001968 100.4318 259.7100 14.34215014376507
IRIDIUM 138             
1 43071U 17083B   25061.33244589  .00000209  00000+0  67485-4 0  9990
2 43071  86.4026 158.9452 0002495 106.8389 253.3081 14.34216494376503
